start=new Date('2021-11-23T00:00:00.000Z').valueOf();
sats=[{"MEAN_MOTION_DOT":"-0.00658758","GP_ID":"190266838","REF_FRAME":"TEME","MEAN_ANOMALY":"259.3903","ECCENTRICITY":"0.00033530","CENTER_NAME":"EARTH","TIME_SYSTEM":"UTC","OBJECT_ID":"2021-082V","EPHEMERIS_TYPE":"0","COUNTRY_CODE":"US","MEAN_MOTION":"15.49434006","MEAN_MOTION_DDOT":"0.0000000000000","APOAPSIS":"420.662","INCLINATION":"69.9999","EPOCH":"2021-11-22T20:00:01.000224","BSTAR":"-0.01297500000000","LAUNCH_DATE":"2021-09-14","DECAY_DATE":null,"TLE_LINE2":"2 49149  69.9999 291.4696 0003353 280.0429 259.3903 15.49434006 12231","SEMIMAJOR_AXIS":"6796.518","RA_OF_ASC_NODE":"291.4696","MEAN_ELEMENT_THEORY":"SGP4","PERIAPSIS":"416.104","ELEMENT_SET_NO":"999","SITE":"AFWTR","NORAD_CAT_ID":"49149","CLASSIFICATION_TYPE":"U","FILE":"3221299","OBJECT_TYPE":"PAYLOAD","TLE_LINE1":"1 49149U 21082V   21326.83334491 -.00658758  00000-0 -12975-1 0  9995","REV_AT_EPOCH":"1223","PERIOD":"92.937","RCS_SIZE":"LARGE","OBJECT_NAME":"STARLINK-3053","ARG_OF_PERICENTER":"280.0429"},{"EPHEMERIS_TYPE":"0","COUNTRY_CODE":"US","OBJECT_ID":"2021-082W","TIME_SYSTEM":"UTC","CENTER_NAME":"EARTH","ECCENTRICITY":"0.00034250","MEAN_ANOMALY":"266.8964","REF_FRAME":"TEME","GP_ID":"190266847","MEAN_MOTION_DOT":"-0.00659008","TLE_LINE2":"2 49150  69.9999 291.4656 0003425 283.3375 266.8964 15.49519206 12231","BSTAR":"-0.01294100000000","LAUNCH_DATE":"2021-09-14","DECAY_DATE":null,"EPOCH":"2021-11-22T20:00:01.000224","INCLINATION":"69.9999","MEAN_MOTION_DDOT":"0.0000000000000","APOAPSIS":"420.461","MEAN_MOTION":"15.49519206","CLASSIFICATION_TYPE":"U","NORAD_CAT_ID":"49150","SITE":"AFWTR","MEAN_ELEMENT_THEORY":"SGP4","ELEMENT_SET_NO":"999","PERIAPSIS":"415.806","RA_OF_ASC_NODE":"291.4656","SEMIMAJOR_AXIS":"6796.269","ARG_OF_PERICENTER":"283.3375","OBJECT_NAME":"STARLINK-3104","RCS_SIZE":"LARGE","PERIOD":"92.932","REV_AT_EPOCH":"1223","TLE_LINE1":"1 49150U 21082W   21326.83334491 -.00659008  00000-0 -12941-1 0  9999","OBJECT_TYPE":"PAYLOAD","FILE":"3221299"},{"RCS_SIZE":"LARGE","OBJECT_NAME":"STARLINK-3102","ARG_OF_PERICENTER":"282.8012","FILE":"3221301","OBJECT_TYPE":"PAYLOAD","REV_AT_EPOCH":"1225","TLE_LINE1":"1 49151U 21082X   21326.83334491  .00076382  00000-0  63690-3 0  9995","PERIOD":"91.737","MEAN_ELEMENT_THEORY":"SGP4","PERIAPSIS":"357.270","ELEMENT_SET_NO":"999","SITE":"AFWTR","NORAD_CAT_ID":"49151","CLASSIFICATION_TYPE":"U","SEMIMAJOR_AXIS":"6737.874","RA_OF_ASC_NODE":"290.9066","LAUNCH_DATE":"2021-09-14","BSTAR":"0.00063690000000","DECAY_DATE":null,"TLE_LINE2":"2 49151  69.9980 290.9066 0003665 282.8012  70.5446 15.69706345 12250","MEAN_MOTION":"15.69706345","MEAN_MOTION_DDOT":"0.0000000000000","APOAPSIS":"362.209","INCLINATION":"69.9980","EPOCH":"2021-11-22T20:00:01.000224","CENTER_NAME":"EARTH","TIME_SYSTEM":"UTC","OBJECT_ID":"2021-082X","EPHEMERIS_TYPE":"0","COUNTRY_CODE":"US","GP_ID":"190266643","MEAN_MOTION_DOT":"0.00076382","MEAN_ANOMALY":"70.5446","REF_FRAME":"TEME","ECCENTRICITY":"0.00036650"},{"SEMIMAJOR_AXIS":"6737.847","RA_OF_ASC_NODE":"290.6670","MEAN_ELEMENT_THEORY":"SGP4","ELEMENT_SET_NO":"999","PERIAPSIS":"357.199","SITE":"AFWTR","NORAD_CAT_ID":"49152","CLASSIFICATION_TYPE":"U","FILE":"3221311","OBJECT_TYPE":"PAYLOAD","TLE_LINE1":"1 49152U 21082Y   21326.91667824  .00020126  00000-0  17019-3 0  9993","REV_AT_EPOCH":"1218","PERIOD":"91.736","RCS_SIZE":"LARGE","ARG_OF_PERICENTER":"283.8928","OBJECT_NAME":"STARLINK-3081","MEAN_MOTION_DOT":"0.00020126","GP_ID":"190266804","REF_FRAME":"TEME","MEAN_ANOMALY":"188.7094","ECCENTRICITY":"0.00037290","CENTER_NAME":"EARTH","TIME_SYSTEM":"UTC","OBJECT_ID":"2021-082Y","EPHEMERIS_TYPE":"0","COUNTRY_CODE":"US","MEAN_MOTION":"15.69715868","MEAN_MOTION_DDOT":"0.0000000000000","APOAPSIS":"362.225","INCLINATION":"69.9991","EPOCH":"2021-11-22T22:00:00.999936","LAUNCH_DATE":"2021-09-14","BSTAR":"0.00017019000000","DECAY_DATE":null,"TLE_LINE2":"2 49152  69.9991 290.6670 0003729 283.8928 188.7094 15.69715868 12182"},{"OBJECT_ID":"2021-082Z","COUNTRY_CODE":"US","EPHEMERIS_TYPE":"0","CENTER_NAME":"EARTH","TIME_SYSTEM":"UTC","ECCENTRICITY":"0.00036940","MEAN_MOTION_DOT":"0.00021704","GP_ID":"190273616","REF_FRAME":"TEME","MEAN_ANOMALY":"187.5819","DECAY_DATE":null,"BSTAR":"0.00018331000000","LAUNCH_DATE":"2021-09-14","TLE_LINE2":"2 49153  69.9993 290.6741 0003694 280.7527 187.5819 15.69722224 11057","INCLINATION":"69.9993","EPOCH":"2021-11-22T22:00:00.999936","MEAN_MOTION":"15.69722224","APOAPSIS":"362.183","MEAN_MOTION_DDOT":"0.0000000000000","NORAD_CAT_ID":"49153","CLASSIFICATION_TYPE":"U","PERIAPSIS":"357.205","ELEMENT_SET_NO":"999","MEAN_ELEMENT_THEORY":"SGP4","SITE":"AFWTR","RA_OF_ASC_NODE":"290.6741","SEMIMAJOR_AXIS":"6737.829","RCS_SIZE":"LARGE","ARG_OF_PERICENTER":"280.7527","OBJECT_NAME":"STARLINK-3072","TLE_LINE1":"1 49153U 21082Z   21326.91667824  .00021704  00000-0  18331-3 0  9995","REV_AT_EPOCH":"1105","PERIOD":"91.736","FILE":"3221619","OBJECT_TYPE":"PAYLOAD"},{"BSTAR":"-0.00025258000000","LAUNCH_DATE":"2021-09-14","DECAY_DATE":null,"TLE_LINE2":"2 49154  69.9991 291.8382 0003900 289.4918 351.3331 15.69773502  3674","MEAN_MOTION":"15.69773502","MEAN_MOTION_DDOT":"0.0000000000000","APOAPSIS":"362.175","INCLINATION":"69.9991","EPOCH":"2021-11-22T12:00:00.999648","CENTER_NAME":"EARTH","TIME_SYSTEM":"UTC","OBJECT_ID":"2021-082AA","EPHEMERIS_TYPE":"0","COUNTRY_CODE":"US","GP_ID":"190265955","MEAN_MOTION_DOT":"-0.00030290","REF_FRAME":"TEME","MEAN_ANOMALY":"351.3331","ECCENTRICITY":"0.00039000","RCS_SIZE":"LARGE","ARG_OF_PERICENTER":"289.4918","OBJECT_NAME":"STARLINK-3068","FILE":"3221278","OBJECT_TYPE":"PAYLOAD","TLE_LINE1":"1 49154U 21082AA  21326.50001157 -.00030290  00000-0 -25258-3 0  9990","REV_AT_EPOCH":"367","PERIOD":"91.733","MEAN_ELEMENT_THEORY":"SGP4","PERIAPSIS":"356.919","ELEMENT_SET_NO":"999","SITE":"AFWTR","NORAD_CAT_ID":"49154","CLASSIFICATION_TYPE":"U","RA_OF_ASC_NODE":"291.8382","SEMIMAJOR_AXIS":"6737.682"},{"DECAY_DATE":null,"LAUNCH_DATE":"2021-09-14","BSTAR":"-0.00026686000000","TLE_LINE2":"2 49155  69.9977 291.8368 0004157 295.0017 341.5478 15.69783449  3675","MEAN_MOTION":"15.69783449","APOAPSIS":"362.319","MEAN_MOTION_DDOT":"0.0000000000000","INCLINATION":"69.9977","EPOCH":"2021-11-22T12:00:00.999648","CENTER_NAME":"EARTH","TIME_SYSTEM":"UTC","OBJECT_ID":"2021-082AB","COUNTRY_CODE":"US","EPHEMERIS_TYPE":"0","GP_ID":"190266411","MEAN_MOTION_DOT":"-0.00031999","REF_FRAME":"TEME","MEAN_ANOMALY":"341.5478","ECCENTRICITY":"0.00041570","RCS_SIZE":"LARGE","OBJECT_NAME":"STARLINK-3060","ARG_OF_PERICENTER":"295.0017","FILE":"3221278","OBJECT_TYPE":"PAYLOAD","TLE_LINE1":"1 49155U 21082AB  21326.50001157 -.00031999  00000-0 -26686-3 0  9994","REV_AT_EPOCH":"367","PERIOD":"91.732","PERIAPSIS":"356.718","ELEMENT_SET_NO":"999","MEAN_ELEMENT_THEORY":"SGP4","SITE":"AFWTR","NORAD_CAT_ID":"49155","CLASSIFICATION_TYPE":"U","SEMIMAJOR_AXIS":"6737.654","RA_OF_ASC_NODE":"291.8368"},{"PERIOD":"91.734","REV_AT_EPOCH":"367","TLE_LINE1":"1 49156U 21082AC  21326.50001157 -.00030899  00000-0 -25793-3 0  9991","OBJECT_TYPE":"PAYLOAD","FILE":"3221278","OBJECT_NAME":"STARLINK-3085","ARG_OF_PERICENTER":"289.8284","RCS_SIZE":"LARGE","SEMIMAJOR_AXIS":"6737.735","RA_OF_ASC_NODE":"291.8236","CLASSIFICATION_TYPE":"U","NORAD_CAT_ID":"49156","SITE":"AFWTR","ELEMENT_SET_NO":"999","PERIAPSIS":"357.142","MEAN_ELEMENT_THEORY":"SGP4","EPOCH":"2021-11-22T12:00:00.999648","INCLINATION":"69.9976","APOAPSIS":"362.059","MEAN_MOTION_DDOT":"0.0000000000000","MEAN_MOTION":"15.69754896","TLE_LINE2":"2 49156  69.9976 291.8236 0003649 289.8284 357.3380 15.69754896  3672","DECAY_DATE":null,"LAUNCH_DATE":"2021-09-14","BSTAR":"-0.00025793000000","ECCENTRICITY":"0.00036490","REF_FRAME":"TEME","MEAN_ANOMALY":"357.3380","MEAN_MOTION_DOT":"-0.00030899","GP_ID":"190266285","COUNTRY_CODE":"US","EPHEMERIS_TYPE":"0","OBJECT_ID":"2021-082AC","TIME_SYSTEM":"UTC","CENTER_NAME":"EARTH"},{"SEMIMAJOR_AXIS":"6737.749","RA_OF_ASC_NODE":"291.8337","NORAD_CAT_ID":"49157","CLASSIFICATION_TYPE":"U","PERIAPSIS":"357.061","ELEMENT_SET_NO":"999","MEAN_ELEMENT_THEORY":"SGP4","SITE":"AFWTR","REV_AT_EPOCH":"367","TLE_LINE1":"1 49157U 21082AD  21326.50001157 -.00030264  00000-0 -25262-3 0  9999","PERIOD":"91.734","FILE":"3221278","OBJECT_TYPE":"PAYLOAD","RCS_SIZE":"LARGE","OBJECT_NAME":"STARLINK-3051","ARG_OF_PERICENTER":"287.4513","ECCENTRICITY":"0.00037890","MEAN_MOTION_DOT":"-0.00030264","GP_ID":"190265829","MEAN_ANOMALY":"355.5293","REF_FRAME":"TEME","OBJECT_ID":"2021-082AD","COUNTRY_CODE":"US","EPHEMERIS_TYPE":"0","CENTER_NAME":"EARTH","TIME_SYSTEM":"UTC","INCLINATION":"69.9986","EPOCH":"2021-11-22T12:00:00.999648","MEAN_MOTION":"15.69750041","APOAPSIS":"362.167","MEAN_MOTION_DDOT":"0.0000000000000","DECAY_DATE":null,"LAUNCH_DATE":"2021-09-14","BSTAR":"-0.00025262000000","TLE_LINE2":"2 49157  69.9986 291.8337 0003789 287.4513 355.5293 15.69750041  3671"},{"OBJECT_NAME":"STARLINK-3083","ARG_OF_PERICENTER":"290.3342","RCS_SIZE":"LARGE","OBJECT_TYPE":"PAYLOAD","FILE":"3221278","PERIOD":"91.733","TLE_LINE1":"1 49158U 21082AE  21326.50001157 -.00030447  00000-0 -25386-3 0  9990","REV_AT_EPOCH":"367","SITE":"AFWTR","PERIAPSIS":"357.207","ELEMENT_SET_NO":"999","MEAN_ELEMENT_THEORY":"SGP4","CLASSIFICATION_TYPE":"U","NORAD_CAT_ID":"49158","SEMIMAJOR_AXIS":"6737.663","RA_OF_ASC_NODE":"291.8239","TLE_LINE2":"2 49158  69.9989 291.8239 0003444 290.3342   1.1130 15.69780201  3672","DECAY_DATE":null,"BSTAR":"-0.00025386000000","LAUNCH_DATE":"2021-09-14","APOAPSIS":"361.848","MEAN_MOTION_DDOT":"0.0000000000000","MEAN_MOTION":"15.69780201","EPOCH":"2021-11-22T12:00:00.999648","INCLINATION":"69.9989","TIME_SYSTEM":"UTC","CENTER_NAME":"EARTH","COUNTRY_CODE":"US","EPHEMERIS_TYPE":"0","OBJECT_ID":"2021-082AE","MEAN_ANOMALY":"1.1130","REF_FRAME":"TEME","MEAN_MOTION_DOT":"-0.00030447","GP_ID":"190265659","ECCENTRICITY":"0.00034440"}];
